[{"OBJECT_NAME":"HAWK-2C","OBJECT_ID":"2021-006CT","EPOCH":"2026-03-09T16:13:22.454976","MEAN_MOTION":15.33286436,"ECCENTRICITY":0.0006943,"INCLINATION":97.2417,"RA_OF_ASC_NODE":114.9961,"ARG_OF_PERICENTER":184.0877,"MEAN_ANOMALY":176.031,"EPHEMERIS_TYPE":0,"CLASSIFICATION_TYPE":"U","NORAD_CAT_ID":47502,"ELEMENT_SET_NO":999,"REV_AT_EPOCH":28424,"BSTAR":0.00025492914,"MEAN_MOTION_DOT":8.129e-5,"MEAN_MOTION_DDOT":0},{"OBJECT_NAME":"STARLINK-31846","OBJECT_ID":"2024-118P","EPOCH":"2026-03-09T05:05:01.793184","MEAN_MOTION":15.30190165,"ECCENTRICITY":0.00012133,"INCLINATION":53.1611,"RA_OF_ASC_NODE":28.9083,"ARG_OF_PERICENTER":77.6146,"MEAN_ANOMALY":282.4991,"EPHEMERIS_TYPE":0,"CLASSIFICATION_TYPE":"U","NORAD_CAT_ID":60126,"ELEMENT_SET_NO":999,"REV_AT_EPOCH":9562,"BSTAR":8.000663e-6,"MEAN_MOTION_DOT":-1.22e-6,"MEAN_MOTION_DDOT":0}]
